CUTE-1 (CO-55)          
1 27844U 03031E   26201.96672872  .00000174  00000+0  94328-4 0  9991
2 27844  98.6745 210.1018 0010867  87.8923 272.3500 14.24353883196486
CUBESAT XI-IV (CO-57)   
1 27848U 03031J   26201.48019381  .00000116  00000+0  70115-4 0  9996
2 27848  98.6776 209.3071 0010684 105.6000 254.6359 14.23636281196115
CUBESAT XI-V            
1 28895U 05043F   26202.17094906  .00000918  00000+0  15197-3 0  9995
2 28895  98.3023 358.5148 0015350  97.8610 262.4340 14.72712305106750
CUTE-1.7+APD II (CO-65) 
1 32785U 08021C   26202.25240068  .00003202  00000+0  20264-3 0  9998
2 32785  97.8299 184.3912 0006868 273.8656  86.1787 15.09732669990333
CANX-2                  
1 32790U 08021H   26202.17985462  .00002145  00000+0  15228-3 0  9998
2 32790  97.8660 182.6279 0008613 293.9076  66.1247 15.05827708989924
SEEDS II (CO-66)        
1 32791U 08021J   26202.26652464  .00014024  00000+0  43124-3 0  9997
2 32791  97.7538 201.8220 0003720 144.0611 216.0881 15.33799025992513
SWISSCUBE               
1 35932U 09051B   26202.17141100  .00000657  00000+0  13918-3 0  9996
2 35932  98.4001 110.6478 0008058 103.2004 257.0097 14.62538143894125
BEESAT-1                
1 35933U 09051C   26202.19863883  .00000544  00000+0  11884-3 0  9993
2 35933  98.3928 110.2394 0006421 114.2759 245.9113 14.61768115894158
ITUPSAT1                
1 35935U 09051E   26202.21936033  .00000500  00000+0  11302-3 0  9993
2 35935  98.4011 109.4157 0008413 126.3913 233.8064 14.60484544893701
TISAT 1                 
1 36799U 10035E   26201.81267580  .00013460  00000+0  42641-3 0  9994
2 36799  98.0710 151.3798 0004768 108.9672 251.2085 15.32865338872850
STRAND-1                
1 39090U 13009E   26202.24008484  .00000187  00000+0  77109-4 0  9999
2 39090  98.3940  21.6393 0009677 124.9348 235.2749 14.37181250701956
BRITE-AUSTRIA           
1 39091U 13009F   26202.05879768  .00000104  00000+0  49797-4 0  9991
2 39091  98.4014  20.6592 0011063 134.4751 225.7342 14.36554034701918
NEE-01 PEGASO           
1 39151U 13018B   26202.16105658  .00001859  00000+0  18083-3 0  9991
2 39151  98.1266 347.4451 0013521  56.5132 303.7377 14.93808665715772
POPACS 2                
1 39269U 13055E   26201.98508493  .00017314 -91033-6  28248-3 0  9996
2 39269  80.9903 105.4875 0414442  85.3115 279.5294 14.92185341668255
POPACS 3                
1 39270U 13055F   26201.98700939  .00008419  00000+0  20067-3 0  9990
2 39270  81.0011 192.5169 0548007 327.0003  29.8058 14.56753540643472
ZACUBE-1 (TSHEPISOSAT)  
1 39417U 13066B   26201.86646474  .00001847  00000+0  14537-3 0  9998
2 39417  97.7999 164.3670 0044079 137.0238 223.4444 15.01347026685787
WNISAT-1                
1 39423U 13066H   26201.97454268  .00000716  00000+0  13765-3 0  9991
2 39423  97.7244 348.7397 0164156 125.2288 236.4404 14.58128138671657
TRITON-1                
1 39427U 13066M   26202.26280025  .00001489  00000+0  18218-3 0  9992
2 39427  97.8213 111.2900 0091030 122.5354 238.4694 14.81810544679134
GOMX-1                  
1 39430U 13066Q   26202.23110694  .00000472  00000+0  78216-4 0  9993
2 39430  97.6466  40.5453 0127734 328.7699  30.5962 14.69549525674910
CUBEBUG-2 (LO-74)       
1 39440U 13066AA  26202.29005105  .00002255  00000+0  21108-3 0  9998
2 39440  97.8921 151.4218 0055511 274.6858  84.8023 14.93994486682083
NEE-02 KRYSAOR          
1 39441U 13066AB  26202.26510257  .00001446  00000+0  16290-3 0  9992
2 39441  97.8896 141.2413 0064888 319.1529  40.4833 14.86755362681262
FUNCUBE-1 (AO-73)       
1 39444U 13066AE  26201.85964422  .00005490  00000+0  33755-3 0  9994
2 39444  97.8300 174.0216 0038088  89.2835 271.2758 15.09868744684749
UWE-3                   
1 39446U 13066AG  26201.83392220  .00002531  00000+0  21910-3 0  9998
2 39446  97.8725 158.1433 0047714 205.2045 154.6848 14.97225341682619
BRITE-CA1 (TORONTO)     
1 40020U 14033L   26202.07759587  .00000758  00000+0  12113-3 0  9997
2 40020  97.9778 330.3886 0078914 167.4605 192.8591 14.72730650647203
DUCHIFAT-1              
1 40021U 14033M   26202.21894455  .00130824  00000+0  97934-3 0  9990
2 40021  98.0413 266.3688 0003510 228.2270 131.8692 15.72257776661085
NANOSATC-BR1            
1 40024U 14033Q   26202.03911747  .00012918  00000+0  41475-3 0  9999
2 40024  98.0709 237.4515 0005085  82.6960 277.4858 15.32447913659168
QB50P1                  
1 40025U 14033R   26202.28387222  .00005913  00000+0  28813-3 0  9990
2 40025  98.0974 215.8333 0010548 106.9805 253.2584 15.18724396658208
QB50P2                  
1 40032U 14033Y   26201.97438004  .00004626  00000+0  24766-3 0  9991
2 40032  98.0771 200.9707 0009144  67.6874 292.5326 15.15553719657788
PERSEUS-M2              
1 40037U 14033AD  26202.25203948  .00000176  00000+0  21385-4 0  9996
2 40037  97.9980 153.4921 0011399 180.0080 180.1142 14.95593083655878
PERSEUS-M1              
1 40039U 14033AF  26201.82083823  .00000405  00000+0  41819-4 0  9997
2 40039  97.9653 146.5093 0011330 178.0215 182.1052 14.95725439655663
